ONEWEB-0144             
1 47290U 20100AJ  25172.45999298  .00000348  00000+0  93298-3 0  9995
2 47290  87.8879  62.3860 0002120  74.6929 285.4434 13.12441617217255
ONEWEB-0145             
1 47291U 20100AK  25172.43078750 -.00000208  00000+0 -61310-3 0  9992
2 47291  87.8880  62.4175 0001976  78.9173 281.2178 13.12443649217441
ONEWEB-0146             
1 47292U 20100AL  25172.42754703 -.00000158  00000+0 -47452-3 0  9996
2 47292  87.8881  62.4048 0001566  86.4018 273.7290 13.12443066217353
ONEWEB-0147             
1 47293U 20100AM  25172.62219692  .00000060  00000+0  13093-3 0  9996
2 47293  87.8875  62.3460 0002110  83.7305 276.4064 13.12441286217271
ONEWEB-0115             
1 48042U 21025A   25172.55097998 -.00000227  00000+0 -65624-3 0  9995
2 48042  87.8958  31.8778 0001773  85.8181 274.3151 13.13469132206259
ONEWEB-0152             
1 48043U 21025B   25172.33598460 -.00000278  00000+0 -79665-3 0  9998
2 48043  87.8960  31.9332 0001748  88.0394 272.0935 13.13469687206185
ONEWEB-0153             
1 48044U 21025C   25172.61869424 -.00000049  00000+0 -16804-3 0  9993
2 48044  87.8966  31.8745 0001844  81.3463 278.7875 13.13468270206216
ONEWEB-0154             
1 48045U 21025D   25172.31060293  .00000012  00000+0 -15401-5 0  9991
2 48045  87.8960  31.9358 0001829  85.4588 274.6750 13.13469532206138
